KAITUO 1B               
1 40912U 15049P   17263.81562053  .00002201  00000-0  11159-3 0  9999
2 40912  97.4520 270.1033 0014165 225.0340 219.9571 15.17926696110798
TIANWANG 1C (TW-1C)     
1 40926U 15051B   17263.83186568  .00010454  00000-0  22887-3 0  9991
2 40926  97.2213 302.6922 0011701 170.4183 276.0374 15.44232152111679
TIANWANG 1B (TW-1B)     
1 40927U 15051C   17263.91315281  .00010175  00000-0  23151-3 0  9992
2 40927  97.2300 302.7448 0011034 182.0143 302.2212 15.43102797111623
TIANWANG 1A (TW-1A)     
1 40928U 15051D   17263.50973663  .00005112  00000-0  14399-3 0  9991
2 40928  97.2192 297.6077 0011469 207.0768 285.8187 15.36825392111336
LAPAN-A2 (IO-86)        
1 40931U 15052B   17263.48515667  .00000754  00000-0  16057-4 0  9990
2 40931   5.9979 273.2227 0012541 153.2340 206.8427 14.76543196107074
LQSAT                   
1 40958U 15057A   17263.75872964  .00000050  00000-0  15572-4 0  9990
2 40958  97.9711 337.3756 0019462 117.5924 242.7266 14.72986076105181
CHUBUSAT-2              
1 41338U 16012B   17263.32606462  .00000486  00000-0  31429-4 0  9998
2 41338  31.0028 228.0031 0013978 280.9498  78.9565 14.99806285 87286
CHUBUSAT-3              
1 41339U 16012C   17263.30793140  .00000554  00000-0  36594-4 0  9991
2 41339  31.0103 227.1135 0013920 286.8417  73.0694 15.00007247 87260
OUFTI-1                 
1 41458U 16025C   17263.62461712  .00001842  00000-0  10201-3 0  9996
2 41458  98.1779 306.6516 0171979 331.1614  28.0184 15.03600990 76925
E-ST@R-II               
1 41459U 16025D   17263.58980135  .00002646  00000-0  14490-3 0  9994
2 41459  98.1774 306.5437 0172527 331.5879  27.6018 15.03416458 76902
AAUSAT 4                
1 41460U 16025E   17263.85984861  .00003655  00000-0  19745-3 0  9995
2 41460  98.1699 306.9928 0165166 328.4561  30.6770 15.04456609 76972
NUSAT 1 (LO-87)         
1 41557U 16033B   17263.54486785  .00001744  00000-0  67676-4 0  9993
2 41557  97.4585 343.0521 0014982  36.7941 323.4323 15.27395008 72980
BEESAT-4                
1 41619U 16040W   17263.39323917  .00002127  00000-0  98522-4 0  9990
2 41619  97.4536 324.8318 0013674  95.7260 264.5535 15.21119507 57066
PRATHAM                 
1 41783U 16059A   17263.57956557  .00000084  00000-0  25752-4 0  9999
2 41783  98.1577 323.9194 0032840 219.9612 139.9173 14.62859918 52542
ALSAT 1N                
1 41789U 16059G   17263.83080819  .00000115  00000-0  31161-4 0  9999
2 41789  98.1581 324.8557 0027559 211.9247 148.0277 14.64076813 52603
NAYIF-1 (EO-88)         
1 42017U 17008BX  17263.43098238  .00002161  00000-0  93927-4 0  9990
2 42017  97.4862 324.6741 0005169 239.2497 120.8231 15.23365523 32980
LILACSAT-1              
1 42725U 98067ME  17263.51900627  .00015520  00000-0  21156-3 0  9990
2 42725  51.6383 281.5488 0006133 319.3679  40.6855 15.57698147 18320
MAX VALIER SAT          
1 42778U 17036P   17263.57924366  .00001379  00000-0  66063-4 0  9991
2 42778  97.4426 322.2605 0011297 296.5076  63.5000 15.20580548 13520
